[{"OBJECT_NAME":"QIANFAN-86","OBJECT_ID":"2025-046P","EPOCH":"2026-03-02T21:57:45.389952","MEAN_MOTION":13.51000535,"ECCENTRICITY":0.00092942,"INCLINATION":88.9767,"RA_OF_ASC_NODE":311.5052,"ARG_OF_PERICENTER":261.7576,"MEAN_ANOMALY":98.2521,"EPHEMERIS_TYPE":0,"CLASSIFICATION_TYPE":"U","NORAD_CAT_ID":63172,"ELEMENT_SET_NO":999,"REV_AT_EPOCH":5837,"BSTAR":0.00025353455,"MEAN_MOTION_DOT":1.76e-6,"MEAN_MOTION_DDOT":0},{"OBJECT_NAME":"QIANFAN-87","OBJECT_ID":"2025-046Q","EPOCH":"2026-03-02T21:16:25.306464","MEAN_MOTION":13.51008844,"ECCENTRICITY":0.00099564,"INCLINATION":88.9763,"RA_OF_ASC_NODE":311.6167,"ARG_OF_PERICENTER":255.9178,"MEAN_ANOMALY":104.0867,"EPHEMERIS_TYPE":0,"CLASSIFICATION_TYPE":"U","NORAD_CAT_ID":63173,"ELEMENT_SET_NO":999,"REV_AT_EPOCH":5830,"BSTAR":0.00025924859,"MEAN_MOTION_DOT":1.79e-6,"MEAN_MOTION_DDOT":0},{"OBJECT_NAME":"QIANFAN-88","OBJECT_ID":"2025-046R","EPOCH":"2026-03-02T21:39:53.678304","MEAN_MOTION":13.50997253,"ECCENTRICITY":0.00103722,"INCLINATION":88.9766,"RA_OF_ASC_NODE":311.5717,"ARG_OF_PERICENTER":265.5035,"MEAN_ANOMALY":94.4931,"EPHEMERIS_TYPE":0,"CLASSIFICATION_TYPE":"U","NORAD_CAT_ID":63174,"ELEMENT_SET_NO":999,"REV_AT_EPOCH":5833,"BSTAR":0.00026565344,"MEAN_MOTION_DOT":1.83e-6,"MEAN_MOTION_DDOT":0},{"OBJECT_NAME":"QIANFAN-89","OBJECT_ID":"2025-046S","EPOCH":"2026-03-02T22:33:28.556640","MEAN_MOTION":13.51007728,"ECCENTRICITY":0.00148239,"INCLINATION":88.9766,"RA_OF_ASC_NODE":311.7569,"ARG_OF_PERICENTER":254.1211,"MEAN_ANOMALY":105.8306,"EPHEMERIS_TYPE":0,"CLASSIFICATION_TYPE":"U","NORAD_CAT_ID":63175,"ELEMENT_SET_NO":999,"REV_AT_EPOCH":5823,"BSTAR":0.00026447512,"MEAN_MOTION_DOT":1.83e-6,"MEAN_MOTION_DDOT":0},{"OBJECT_NAME":"QIANFAN-90","OBJECT_ID":"2025-046T","EPOCH":"2026-03-02T21:28:20.883360","MEAN_MOTION":13.51007583,"ECCENTRICITY":0.00117635,"INCLINATION":88.9766,"RA_OF_ASC_NODE":311.734,"ARG_OF_PERICENTER":252.4851,"MEAN_ANOMALY":107.5015,"EPHEMERIS_TYPE":0,"CLASSIFICATION_TYPE":"U","NORAD_CAT_ID":63176,"ELEMENT_SET_NO":999,"REV_AT_EPOCH":5824,"BSTAR":0.0002909206,"MEAN_MOTION_DOT":2.0e-6,"MEAN_MOTION_DDOT":0},{"OBJECT_NAME":"QIANFAN-91","OBJECT_ID":"2025-233A","EPOCH":"2026-03-02T22:15:11.750112","MEAN_MOTION":13.51004431,"ECCENTRICITY":0.00019014,"INCLINATION":88.9925,"RA_OF_ASC_NODE":53.935,"ARG_OF_PERICENTER":92.8683,"MEAN_ANOMALY":267.2686,"EPHEMERIS_TYPE":0,"CLASSIFICATION_TYPE":"U","NORAD_CAT_ID":66033,"ELEMENT_SET_NO":999,"REV_AT_EPOCH":1883,"BSTAR":0.00010196217,"MEAN_MOTION_DOT":7.8e-7,"MEAN_MOTION_DDOT":0},{"OBJECT_NAME":"QIANFAN-92","OBJECT_ID":"2025-233B","EPOCH":"2026-03-02T22:26:57.603552","MEAN_MOTION":13.51004791,"ECCENTRICITY":0.00020118,"INCLINATION":88.9904,"RA_OF_ASC_NODE":53.9229,"ARG_OF_PERICENTER":88.7138,"MEAN_ANOMALY":271.4244,"EPHEMERIS_TYPE":0,"CLASSIFICATION_TYPE":"U","NORAD_CAT_ID":66034,"ELEMENT_SET_NO":999,"REV_AT_EPOCH":1883,"BSTAR":9.062904e-5,"MEAN_MOTION_DOT":7.1e-7,"MEAN_MOTION_DDOT":0},{"OBJECT_NAME":"QIANFAN-93","OBJECT_ID":"2025-233C","EPOCH":"2026-03-02T22:38:48.748128","MEAN_MOTION":13.51004747,"ECCENTRICITY":0.00018966,"INCLINATION":88.9936,"RA_OF_ASC_NODE":53.9455,"ARG_OF_PERICENTER":90.9426,"MEAN_ANOMALY":269.1943,"EPHEMERIS_TYPE":0,"CLASSIFICATION_TYPE":"U","NORAD_CAT_ID":66035,"ELEMENT_SET_NO":999,"REV_AT_EPOCH":1883,"BSTAR":5.5109902e-5,"MEAN_MOTION_DOT":4.8e-7,"MEAN_MOTION_DDOT":0},{"OBJECT_NAME":"QIANFAN-94","OBJECT_ID":"2025-233D","EPOCH":"2026-03-02T22:20:46.323744","MEAN_MOTION":13.5099175,"ECCENTRICITY":0.00020394,"INCLINATION":88.9932,"RA_OF_ASC_NODE":53.8537,"ARG_OF_PERICENTER":88.6123,"MEAN_ANOMALY":271.5261,"EPHEMERIS_TYPE":0,"CLASSIFICATION_TYPE":"U","NORAD_CAT_ID":66036,"ELEMENT_SET_NO":999,"REV_AT_EPOCH":1888,"BSTAR":4.0614463e-5,"MEAN_MOTION_DOT":3.8e-7,"MEAN_MOTION_DDOT":0},{"OBJECT_NAME":"QIANFAN-95","OBJECT_ID":"2025-233E","EPOCH":"2026-03-02T22:32:43.550880","MEAN_MOTION":13.51015757,"ECCENTRICITY":0.00021059,"INCLINATION":88.9927,"RA_OF_ASC_NODE":53.3979,"ARG_OF_PERICENTER":97.3789,"MEAN_ANOMALY":262.7602,"EPHEMERIS_TYPE":0,"CLASSIFICATION_TYPE":"U","NORAD_CAT_ID":66037,"ELEMENT_SET_NO":999,"REV_AT_EPOCH":1913,"BSTAR":8.642234e-5,"MEAN_MOTION_DOT":6.8e-7,"MEAN_MOTION_DDOT":0},{"OBJECT_NAME":"QIANFAN-96","OBJECT_ID":"2025-233F","EPOCH":"2026-03-02T23:08:30.123456","MEAN_MOTION":13.51004566,"ECCENTRICITY":0.00018917,"INCLINATION":88.9927,"RA_OF_ASC_NODE":53.9427,"ARG_OF_PERICENTER":94.6384,"MEAN_ANOMALY":265.4983,"EPHEMERIS_TYPE":0,"CLASSIFICATION_TYPE":"U","NORAD_CAT_ID":66038,"ELEMENT_SET_NO":999,"REV_AT_EPOCH":1883,"BSTAR":5.6060719e-5,"MEAN_MOTION_DOT":4.8e-7,"MEAN_MOTION_DDOT":0},{"OBJECT_NAME":"QIANFAN-97","OBJECT_ID":"2025-233G","EPOCH":"2026-03-02T22:44:46.804416","MEAN_MOTION":13.51004049,"ECCENTRICITY":0.0001899,"INCLINATION":88.9931,"RA_OF_ASC_NODE":53.925,"ARG_OF_PERICENTER":92.0387,"MEAN_ANOMALY":268.0982,"EPHEMERIS_TYPE":0,"CLASSIFICATION_TYPE":"U","NORAD_CAT_ID":66039,"ELEMENT_SET_NO":999,"REV_AT_EPOCH":1884,"BSTAR":6.7167713e-5,"MEAN_MOTION_DOT":5.5e-7,"MEAN_MOTION_DDOT":0},{"OBJECT_NAME":"QIANFAN-98","OBJECT_ID":"2025-233H","EPOCH":"2026-03-02T22:56:33.364608","MEAN_MOTION":13.51004423,"ECCENTRICITY":0.00024303,"INCLINATION":88.992,"RA_OF_ASC_NODE":53.6666,"ARG_OF_PERICENTER":86.672,"MEAN_ANOMALY":273.4709,"EPHEMERIS_TYPE":0,"CLASSIFICATION_TYPE":"U","NORAD_CAT_ID":66040,"ELEMENT_SET_NO":999,"REV_AT_EPOCH":1898,"BSTAR":4.3101506e-5,"MEAN_MOTION_DOT":4.0e-7,"MEAN_MOTION_DDOT":0},{"OBJECT_NAME":"QIANFAN-99","OBJECT_ID":"2025-233J","EPOCH":"2026-03-02T23:02:33.008928","MEAN_MOTION":13.51004491,"ECCENTRICITY":0.00022954,"INCLINATION":88.993,"RA_OF_ASC_NODE":53.927,"ARG_OF_PERICENTER":90.426,"MEAN_ANOMALY":269.7155,"EPHEMERIS_TYPE":0,"CLASSIFICATION_TYPE":"U","NORAD_CAT_ID":66041,"ELEMENT_SET_NO":999,"REV_AT_EPOCH":1884,"BSTAR":4.1992539e-5,"MEAN_MOTION_DOT":3.9e-7,"MEAN_MOTION_DDOT":0},{"OBJECT_NAME":"QIANFAN-100","OBJECT_ID":"2025-233K","EPOCH":"2026-03-02T22:50:39.823584","MEAN_MOTION":13.50996439,"ECCENTRICITY":0.00018878,"INCLINATION":88.9942,"RA_OF_ASC_NODE":53.8431,"ARG_OF_PERICENTER":91.2012,"MEAN_ANOMALY":268.9355,"EPHEMERIS_TYPE":0,"CLASSIFICATION_TYPE":"U","NORAD_CAT_ID":66042,"ELEMENT_SET_NO":999,"REV_AT_EPOCH":1889,"BSTAR":8.186035e-5,"MEAN_MOTION_DOT":6.5e-7,"MEAN_MOTION_DDOT":0},{"OBJECT_NAME":"QIANFAN-101","OBJECT_ID":"2025-233L","EPOCH":"2026-03-02T21:39:42.232032","MEAN_MOTION":14.26730419,"ECCENTRICITY":0.00166685,"INCLINATION":88.9932,"RA_OF_ASC_NODE":52.7677,"ARG_OF_PERICENTER":126.8378,"MEAN_ANOMALY":233.4348,"EPHEMERIS_TYPE":0,"CLASSIFICATION_TYPE":"U","NORAD_CAT_ID":66043,"ELEMENT_SET_NO":999,"REV_AT_EPOCH":1947,"BSTAR":0.00023262886,"MEAN_MOTION_DOT":5.78e-6,"MEAN_MOTION_DDOT":0},{"OBJECT_NAME":"QIANFAN-102","OBJECT_ID":"2025-233M","EPOCH":"2026-03-02T23:20:03.718464","MEAN_MOTION":13.50992279,"ECCENTRICITY":0.00020678,"INCLINATION":88.9928,"RA_OF_ASC_NODE":53.8379,"ARG_OF_PERICENTER":89.0586,"MEAN_ANOMALY":271.0802,"EPHEMERIS_TYPE":0,"CLASSIFICATION_TYPE":"U","NORAD_CAT_ID":66044,"ELEMENT_SET_NO":999,"REV_AT_EPOCH":1889,"BSTAR":2.5893743e-5,"MEAN_MOTION_DOT":2.9e-7,"MEAN_MOTION_DDOT":0}]
