QIANFAN-86              
1 63172U 25046P   26061.91510868  .00000176  00000+0  25353-3 0  9993
2 63172  88.9767 311.5052 0009294 261.7576  98.2521 13.51000535 58374
QIANFAN-87              
1 63173U 25046Q   26061.88640401  .00000179  00000+0  25925-3 0  9995
2 63173  88.9763 311.6167 0009956 255.9178 104.0867 13.51008844 58300
QIANFAN-88              
1 63174U 25046R   26061.90270461  .00000183  00000+0  26565-3 0  9990
2 63174  88.9766 311.5717 0010372 265.5035  94.4931 13.50997253 58334
QIANFAN-89              
1 63175U 25046S   26061.93991385  .00000183  00000+0  26448-3 0  9999
2 63175  88.9766 311.7569 0014823 254.1211 105.8306 13.51007728 58239
QIANFAN-90              
1 63176U 25046T   26061.89468615  .00000200  00000+0  29092-3 0  9998
2 63176  88.9766 311.7340 0011763 252.4851 107.5015 13.51007583 58244
QIANFAN-91              
1 66033U 25233A   26061.92721933  .00000078  00000+0  10196-3 0  9998
2 66033  88.9925  53.9350 0001901  92.8683 267.2686 13.51004431 18832
QIANFAN-92              
1 66034U 25233B   26061.93538893  .00000071  00000+0  90629-4 0  9994
2 66034  88.9904  53.9229 0002011  88.7138 271.4244 13.51004791 18833
QIANFAN-93              
1 66035U 25233C   26061.94361977  .00000048  00000+0  55110-4 0  9993
2 66035  88.9936  53.9455 0001896  90.9426 269.1943 13.51004747 18836
QIANFAN-94              
1 66036U 25233D   26061.93109171  .00000038  00000+0  40614-4 0  9991
2 66036  88.9932  53.8537 0002039  88.6123 271.5261 13.50991750 18884
QIANFAN-95              
1 66037U 25233E   26061.93939295  .00000068  00000+0  86422-4 0  9990
2 66037  88.9927  53.3979 0002105  97.3789 262.7602 13.51015757 19138
QIANFAN-96              
1 66038U 25233F   26061.96423754  .00000048  00000+0  56061-4 0  9996
2 66038  88.9927  53.9427 0001891  94.6384 265.4983 13.51004566 18839
QIANFAN-97              
1 66039U 25233G   26061.94776394  .00000055  00000+0  67168-4 0  9994
2 66039  88.9931  53.9250 0001899  92.0387 268.0982 13.51004049 18847
QIANFAN-98              
1 66040U 25233H   26061.95594172  .00000040  00000+0  43102-4 0  9995
2 66040  88.9920  53.6666 0002430  86.6720 273.4709 13.51004423 18985
QIANFAN-99              
1 66041U 25233J   26061.96010427  .00000039  00000+0  41993-4 0  9997
2 66041  88.9930  53.9270 0002295  90.4260 269.7155 13.51004491 18845
QIANFAN-100             
1 66042U 25233K   26061.95184981  .00000065  00000+0  81860-4 0  9990
2 66042  88.9942  53.8431 0001887  91.2012 268.9355 13.50996439 18896
QIANFAN-101             
1 66043U 25233L   26061.90257213  .00000578  00000+0  23263-3 0  9996
2 66043  88.9932  52.7677 0016668 126.8378 233.4348 14.26730419 19471
QIANFAN-102             
1 66044U 25233M   26061.97226526  .00000029  00000+0  25894-4 0  9991
2 66044  88.9928  53.8379 0002067  89.0586 271.0802 13.50992279 18895
